NORAD_CAT_ID,OBJECT_NAME,OBJECT_TYPE,EPOCH,MEAN_MOTION,ECCENTRICITY,INCLINATION,RA_OF_ASC_NODE,ARG_OF_PERICENTER,MEAN_ANOMALY,BSTAR,MEAN_MOTION_DOT,MEAN_MOTION_DDOT,TLE_LINE0,TLE_LINE1,TLE_LINE2,SEMIMAJOR_AXIS,PERIOD,APOGEE,PERIGEE,DECAYED
53861.0,STARLINK-4781,PAYLOAD,2023-04-12 18:07:34,15.08833379,0.0001124,53.2169,11.4845,101.4555,258.6563,0.00024722,3.648e-05,0.0,0 STARLINK-4781,1 53861U 22114AV  23102.75526159  .00003648  00000-0  24722-3 0  9992,2 53861  53.2169  11.4845 0001124 101.4555 258.6563 15.08833379 32257,6917.901,95.438,540.543,538.988,0.0
53861.0,STARLINK-4781,PAYLOAD,2023-04-13 03:39:53,15.08840827,9.95e-05,53.2173,9.7015,83.2739,276.8366,0.00072467,0.00011264,0.0,0 STARLINK-4781,1 53861U 22114AV  23103.15270153  .00011264  00000-0  72467-3 0  9999,2 53861  53.2173   9.7015 0000995  83.2739 276.8366 15.08840827 32852,6917.878,95.438,540.431,539.055,0.0
53861.0,STARLINK-4781,PAYLOAD,2023-04-14 03:30:39,15.08858281,9.02e-05,53.218,5.2406,72.7596,287.3495,0.00060616,9.377e-05,0.0,0 STARLINK-4781,1 53861U 22114AV  23104.14629615  .00009377  00000-0  60616-3 0  9995,2 53861  53.2180   5.2406 0000902  72.7596 287.3495 15.08858281 33008,6917.825,95.436,540.313,539.066,0.0
53861.0,STARLINK-4781,PAYLOAD,2023-04-14 16:13:45,15.08845225,0.0001249,53.2167,2.8619,84.9386,275.1748,0.00014944,2.092e-05,0.0,0 STARLINK-4781,1 53861U 22114AV  23104.67621936  .00002092  00000-0  14944-3 0  9991,2 53861  53.2167   2.8619 0001249  84.9386 275.1748 15.08845225 32547,6917.864,95.437,540.593,538.865,0.0
53861.0,STARLINK-4781,PAYLOAD,2023-04-15 01:46:03,15.0885804,8.3e-05,53.2167,1.0783,96.6638,263.4449,0.00053247,8.201e-05,0.0,0 STARLINK-4781,1 53861U 22114AV  23105.07365420  .00008201  00000-0  53247-3 0  9996,2 53861  53.2167   1.0783 0000830  96.6638 263.4449 15.08858040 33149,6917.825,95.436,540.264,539.116,0.0
53861.0,STARLINK-4781,PAYLOAD,2023-04-15 20:50:41,15.08842696,0.000129,53.2174,357.5105,102.9678,257.1458,0.00059732,9.232e-05,0.0,0 STARLINK-4781,1 53861U 22114AV  23105.86853883  .00009232  00000-0  59732-3 0  9998,2 53861  53.2174 357.5105 0001290 102.9678 257.1458 15.08842696 33263,6917.872,95.437,540.63,538.845,0.0
53861.0,STARLINK-4781,PAYLOAD,2023-04-15 22:26:04,15.0884281,0.0001115,53.2175,357.2132,110.9531,249.158,0.00054946,8.468e-05,0.0,0 STARLINK-4781,1 53861U 22114AV  23105.93477811  .00008468  00000-0  54946-3 0  9991,2 53861  53.2175 357.2132 0001115 110.9531 249.1580 15.08842810 32730,6917.872,95.437,540.508,538.965,0.0
53861.0,STARLINK-4781,PAYLOAD,2023-04-16 01:36:50,15.08850337,7.61e-05,53.2168,356.619,95.8449,264.263,0.00058827,9.09e-05,0.0,0 STARLINK-4781,1 53861U 22114AV  23106.06725643  .00009090  00000-0  58827-3 0  9999,2 53861  53.2168 356.6190 0000761  95.8449 264.2630 15.08850337 33293,6917.849,95.437,540.24,539.187,0.0
53861.0,STARLINK-4781,PAYLOAD,2023-04-16 20:41:29,15.08836789,8.13e-05,53.2168,353.0514,103.9467,256.1615,0.00051855,7.974e-05,0.0,0 STARLINK-4781,1 53861U 22114AV  23106.86214156  .00007974  00000-0  51855-3 0  9992,2 53861  53.2168 353.0514 0000813 103.9467 256.1615 15.08836789 32874,6917.89,95.438,540.318,539.193,0.0
53861.0,STARLINK-4781,PAYLOAD,2023-04-17 01:27:38,15.08842691,7.67e-05,53.2164,352.1584,83.0068,277.1012,0.00015448,2.172e-05,0.0,0 STARLINK-4781,1 53861U 22114AV  23107.06085907  .00002172  00000-0  15448-3 0  9998,2 53861  53.2164 352.1584 0000767  83.0068 277.1012 15.08842691 33447,6917.872,95.437,540.268,539.207,0.0
53861.0,STARLINK-4781,PAYLOAD,2023-04-17 20:32:16,15.08834807,0.0001171,53.2166,348.5917,64.7538,295.3575,6.4564e-05,7.4e-06,0.0,0 STARLINK-4781,1 53861U 22114AV  23107.85574851  .00000740  00000-0  64564-4 0  9999,2 53861  53.2166 348.5917 0001171  64.7538 295.3575 15.08834807 33026,6917.896,95.438,540.571,538.951,0.0
53861.0,STARLINK-4781,PAYLOAD,2023-04-17 22:07:39,15.08836529,7.22e-05,53.2157,348.2927,84.1532,275.9542,7.2013e-05,8.59e-06,0.0,0 STARLINK-4781,1 53861U 22114AV  23107.92198528  .00000859  00000-0  72013-4 0  9999,2 53861  53.2157 348.2927 0000722  84.1532 275.9542 15.08836529 33576,6917.891,95.438,540.255,539.257,0.0
53861.0,STARLINK-4781,PAYLOAD,2023-04-18 01:18:25,15.08843225,9.85e-05,53.2154,347.6978,82.7544,277.356,0.0002202,3.219e-05,0.0,0 STARLINK-4781,1 53861U 22114AV  23108.05446364  .00003219  00000-0  22020-3 0  9993,2 53861  53.2154 347.6978 0000985  82.7544 277.3560 15.08843225 33599,6917.871,95.437,540.417,539.054,0.0
53861.0,STARLINK-4781,PAYLOAD,2023-04-18 15:36:53,15.08847333,0.0001009,53.2156,345.0207,86.8603,273.2505,0.00025288,3.74e-05,0.0,0 STARLINK-4781,1 53861U 22114AV  23108.65062371  .00003740  00000-0  25288-3 0  9999,2 53861  53.2156 345.0207 0001009  86.8603 273.2505 15.08847333 33146,6917.858,95.437,540.421,539.025,0.0
53861.0,STARLINK-4781,PAYLOAD,2023-04-19 01:09:12,15.08854555,8.38e-05,53.215,343.2383,82.3585,277.7502,0.00034094,5.145e-05,0.0,0 STARLINK-4781,1 53861U 22114AV  23109.04805753  .00005145  00000-0  34094-3 0  9998,2 53861  53.2150 343.2383 0000838  82.3585 277.7502 15.08854555 33740,6917.836,95.437,540.281,539.121,0.0
53861.0,STARLINK-4781,PAYLOAD,2023-04-19 21:49:13,15.08846931,0.0001266,53.2153,339.3709,91.4793,268.6345,0.00012342,1.677e-05,0.0,0 STARLINK-4781,1 53861U 22114AV  23109.90918095  .00001677  00000-0  12342-3 0  9995,2 53861  53.2153 339.3709 0001266  91.4793 268.6345 15.08846931 33876,6917.859,95.437,540.6,538.848,0.0
53861.0,STARLINK-4781,PAYLOAD,2023-04-20 00:59:59,15.08853425,0.0001362,53.2163,338.7743,102.1895,257.925,0.00024037,3.541e-05,0.0,0 STARLINK-4781,1 53861U 22114AV  23110.04165799  .00003541  00000-0  24037-3 0  9993,2 53861  53.2163 338.7743 0001362 102.1895 257.9250 15.08853425 33353,6917.839,95.437,540.647,538.762,0.0
53861.0,STARLINK-4781,PAYLOAD,2023-04-21 00:50:46,15.08838803,0.0001307,53.2153,334.3167,89.3145,270.7997,7.1526e-05,8.51e-06,0.0,0 STARLINK-4781,1 53861U 22114AV  23111.03526469  .00000851  00000-0  71526-4 0  9995,2 53861  53.2153 334.3167 0001307  89.3145 270.7997 15.08838803 33508,6917.884,95.438,540.653,538.845,0.0
53861.0,STARLINK-4781,PAYLOAD,2023-04-21 21:30:47,15.08844352,0.0001381,53.2151,330.4507,93.0637,267.0514,0.00017656,2.523e-05,0.0,0 STARLINK-4781,1 53861U 22114AV  23111.89638664  .00002523  00000-0  17656-3 0  9991,2 53861  53.2151 330.4507 0001381  93.0637 267.0514 15.08844352 34175,6917.867,95.437,540.687,538.777,0.0
53861.0,STARLINK-4781,PAYLOAD,2023-04-22 13:24:39,15.08837073,0.0001387,53.2154,327.4763,91.4169,268.6982,0.00013056,1.79e-05,0.0,0 STARLINK-4781,1 53861U 22114AV  23112.55879115  .00001790  00000-0  13056-3 0  9998,2 53861  53.2154 327.4763 0001387  91.4169 268.6982 15.08837073 34275,6917.889,95.438,540.714,538.795,0.0
53861.0,STARLINK-4781,PAYLOAD,2023-04-22 15:00:02,15.08839175,0.0001365,53.2146,327.1788,97.2535,262.8613,0.00015395,2.163e-05,0.0,0 STARLINK-4781,1 53861U 22114AV  23112.62502996  .00002163  00000-0  15395-3 0  9999,2 53861  53.2146 327.1788 0001365  97.2535 262.8613 15.08839175 33740,6917.883,95.438,540.692,538.804,0.0
53861.0,STARLINK-4781,PAYLOAD,2023-04-22 21:21:34,15.08846974,0.000166,53.2151,325.989,95.3645,264.7536,0.00026359,3.91e-05,0.0,0 STARLINK-4781,1 53861U 22114AV  23112.88998693  .00003910  00000-0  26359-3 0  9993,2 53861  53.2151 325.9890 0001660  95.3645 264.7536 15.08846974 34320,6917.859,95.437,540.872,538.576,0.0
53861.0,STARLINK-4781,PAYLOAD,2023-04-23 13:15:26,15.08847386,0.000132,53.2152,323.0168,99.5277,260.5864,0.00022853,3.352e-05,0.0,0 STARLINK-4781,1 53861U 22114AV  23113.55238591  .00003352  00000-0  22853-3 0  9997,2 53861  53.2152 323.0168 0001320  99.5277 260.5864 15.08847386 34425,6917.858,95.437,540.636,538.81,0.0
53861.0,STARLINK-4781,PAYLOAD,2023-04-23 14:50:49,15.08838567,0.0001315,53.2156,322.7193,97.456,262.6582,3.37e-05,2.48e-06,0.0,0 STARLINK-4781,1 53861U 22114AV  23113.61863001  .00000248  00000-0  33700-4 0  9999,2 53861  53.2156 322.7193 0001315  97.4560 262.6582 15.08838567 34431,6917.885,95.438,540.659,538.84,0.0
53861.0,STARLINK-4781,PAYLOAD,2023-04-23 18:01:35,15.08852012,0.0001282,53.2154,322.1243,96.5483,263.5655,0.00039454,5.999e-05,0.0,0 STARLINK-4781,1 53861U 22114AV  23113.75110976  .00005999  00000-0  39454-3 0  9999,2 53861  53.2154 322.1243 0001282  96.5483 263.5655 15.08852012 33910,6917.844,95.437,540.596,538.822,0.0
53861.0,STARLINK-4781,PAYLOAD,2023-04-24 14:41:35,15.08873954,0.0001241,53.2157,318.2582,95.8344,264.2789,0.00083335,0.00013012,0.0,0 STARLINK-4781,1 53861U 22114AV  23114.61221753  .00013012  00000-0  83335-3 0  9993,2 53861  53.2157 318.2582 0001241  95.8344 264.2789 15.08873954 34586,6917.777,95.435,540.5,538.783,0.0
53861.0,STARLINK-4781,PAYLOAD,2023-04-25 12:57:00,15.08824444,0.0001793,53.2154,314.1007,345.196,14.8979,-4.8742e-05,-1.063e-05,0.0,0 STARLINK-4781,1 53861U 22114AV  23115.53959484 -.00001063  00000-0 -48742-4 0  9993,2 53861  53.2154 314.1007 0001793 345.1960  14.8979 15.08824444 34723,6917.928,95.439,541.033,538.553,0.0
53861.0,STARLINK-4781,PAYLOAD,2023-04-26 08:01:40,15.08797591,8.14e-05,53.217,310.5266,71.0237,289.0843,-0.00025127,-4.28e-05,0.0,0 STARLINK-4781,1 53861U 22114AV  23116.33450087 -.00004280  00000-0 -25127-3 0  9992,2 53861  53.2170 310.5266 0000814  71.0237 289.0843 15.08797591 34844,6918.01,95.44,540.438,539.312,0.0
53861.0,STARLINK-4781,PAYLOAD,2023-04-26 19:09:22,15.08842866,0.0001315,53.2174,308.4485,22.3003,337.8046,0.00063604,9.85e-05,0.0,0 STARLINK-4781,1 53861U 22114AV  23116.79817534  .00009850  00000-0  63604-3 0  9994,2 53861  53.2174 308.4485 0001315  22.3003 337.8046 15.08842866 34915,6917.872,95.437,540.646,538.827,0.0
53861.0,STARLINK-4781,PAYLOAD,2023-04-27 07:52:25,15.08881952,0.0001642,53.2157,306.0662,336.0268,24.0647,-0.00015214,-2.711e-05,0.0,0 STARLINK-4781,1 53861U 22114AV  23117.32807819 -.00002711  00000-0 -15214-3 0  9994,2 53861  53.2157 306.0662 0001642 336.0268  24.0647 15.08881952 34997,6917.752,95.435,540.753,538.481,0.0
